OSCAR 7 (AO-7)          
1 07530U 74089B   18124.53363987 -.00000036  00000-0  50661-4 0  9995
2 07530 101.6833  92.5153 0012541  60.5157  51.7171 12.53632312989120
UOSAT 2 (UO-11)         
1 14781U 84021B   18124.54832599  .00000072  00000-0  15036-4 0  9995
2 14781  97.6537 162.6147 0007495 218.0079 142.0607 14.82999818837972
LUSAT (LO-19)           
1 20442U 90005G   18124.49977028  .00000011  00000-0  20231-4 0  9992
2 20442  98.6076  63.2669 0010610 280.8308  79.1682 14.32894129477632
ITAMSAT (IO-26)         
1 22826U 93061D   18124.51751891 -.00000005  00000-0  15880-4 0  9994
2 22826  98.8535  99.8935 0010022 102.1110 258.1195 14.30360039283513
RADIO ROSTO (RS-15)     
1 23439U 94085A   18124.26263014 -.00000039  00000-0  91503-4 0  9992
2 23439  64.8191  59.8690 0158581 190.0532 287.0896 11.27566847961617
JAS-2 (FO-29)           
1 24278U 96046B   18124.52772779 -.00000021  00000-0  15972-4 0  9992
2 24278  98.5209 329.2937 0349610 224.0871 133.1906 13.53083247 72334
TECHSAT 1B (GO-32)      
1 25397U 98043D   18124.38641795 -.00000009  00000-0  15259-4 0  9995
2 25397  98.6470  65.5571 0002108 119.0898 241.0491 14.23644550 29273
ISS (ZARYA)             
1 25544U 98067A   18124.75998068  .00001739  00000-0  33432-4 0  9997
2 25544  51.6425 235.1983 0003395  49.1570 107.8277 15.54200133111764
PCSAT (NO-44)           
1 26931U 01043C   18124.58735309 -.00000022  00000-0  23397-4 0  9998
2 26931  67.0518 341.9117 0007246 280.3865  79.6419 14.30503258866240
SAUDISAT 1C (SO-50)     
1 27607U 02058C   18124.56216821 -.00000023  00000-0  17529-4 0  9998
2 27607  64.5555 223.3804 0060355 338.1917  21.6616 14.75444159826391
CUTE-1 (CO-55)          
1 27844U 03031E   18124.54767967  .00000032  00000-0  34179-4 0  9992
2 27844  98.6879 133.8459 0010697 133.2555 226.9517 14.22109457769991
CUBESAT XI-IV (CO-57)   
1 27848U 03031J   18124.56524176  .00000025  00000-0  31238-4 0  9996
2 27848  98.6966 134.2466 0010430 142.6361 217.5543 14.21713975769832
MOZHAYETS 4 (RS-22)     
1 27939U 03042A   18124.58257240  .00000083  00000-0  23377-4 0  9995
2 27939  97.9836 264.8601 0011602 288.7033 134.7312 14.66680839780289
CUBESAT XI-V (CO-58)    
1 28895U 05043F   18124.38390646  .00000137  00000-0  35154-4 0  9992
2 28895  97.9032 277.6289 0016296 203.4035 156.6428 14.63538155667233
CUTE-1.7+APD II (CO-65) 
1 32785U 08021C   18124.47589816  .00000191  00000-0  26312-4 0  9999
2 32785  97.5491 138.7374 0013142 176.4758 183.6555 14.88105436542604
DELFI-C3 (DO-64)        
1 32789U 08021G   18124.59280710  .00000676  00000-0  50510-4 0  9992
2 32789  97.5155 180.5007 0014261  88.0816 272.2044 15.05962591545120
SEEDS II (CO-66)        
1 32791U 08021J   18124.50150986  .00000196  00000-0  25461-4 0  9991
2 32791  97.5388 144.0209 0014044 157.6436 202.5398 14.90529239542924
YUBILEINY (RS-30)       
1 32953U 08025A   18124.57769443  .00000005  00000-0 -36479-4 0  9997
2 32953  82.5064  39.7982 0018483 308.1490  51.7924 12.43082934451358
KKS-1 (KISEKI)          
1 33499U 09002H   18124.56933187  .00000101  00000-0  23054-4 0  9997
2 33499  98.3551 304.9229 0010477  74.1997 286.0366 14.75320811498325
SWISSCUBE               
1 35932U 09051B   18124.39079364  .00000126  00000-0  39557-4 0  9996
2 35932  98.5392 274.5139 0007305 354.3375   5.7739 14.56150164457028
BEESAT                  
1 35933U 09051C   18124.42115229  .00000100  00000-0  33497-4 0  9991
2 35933  98.5433 276.0649 0005846  10.4709 349.6609 14.56255214457092
ITUPSAT 1               
1 35935U 09051E   18124.38245996  .00000078  00000-0  29174-4 0  9994
2 35935  98.5544 276.2787 0007992   2.0324 358.0903 14.55433242456926
XIWANG-1 (HOPE-1)       
1 36122U 09072B   18124.53764219 -.00000028  00000-0  36547-4 0  9995
2 36122 100.0779 141.2105 0007148 208.3479 151.7247 13.16344374402804
JUGNU                   
1 37839U 11058B   18124.61981334  .00000329  00000-0  33707-4 0  9994
2 37839  19.9618 301.4358 0018934 126.3211 300.4673 14.12617696339091
SRMSAT                  
1 37841U 11058D   18124.02599928  .00000306  00000-0  23157-4 0  9999
2 37841  19.9734 353.3265 0011811   5.8349 140.6347 14.10604845338547
M-CUBED & EXP-1 PRIME   
1 37855U 11061F   18124.57722395  .00000949  00000-0  56567-4 0  9998
2 37855 101.7205 164.8048 0176935 211.2307 147.8297 15.04305678354621
STRAND-1                
1 39090U 13009E   18124.53165052  .00000022  00000-0  22901-4 0  9999
2 39090  98.5261 331.4759 0010375  69.7003 290.5297 14.35022593271566
SOMP                    
1 39134U 13015E   18124.61922556  .00000985  00000-0  56223-4 0  9996
2 39134  64.8636 267.8311 0016916 217.4637 142.5312 15.19056106277903
BEESAT-3                
1 39135U 13015F   18124.56992936  .00001044  00000-0  62931-4 0  9990
2 39135  64.8689 280.7848 0025921 239.8627 119.9930 15.16589189277648
BEESAT-2                
1 39136U 13015G   18124.59031114  .00000680  00000-0  45161-4 0  9997
2 39136  64.8694 283.3875 0025362 239.5571 120.3049 15.16060930277597
ZACUBE-1 (TSHEPISOSAT)  
1 39417U 13066B   18124.59894024  .00000185  00000-0  29863-4 0  9993
2 39417  97.5910 155.5557 0057662 298.7101  60.8324 14.80919339240347
GOMX 1                  
1 39430U 13066Q   18124.55137312  .00000174  00000-0  40046-4 0  9998
2 39430  97.6947 104.5779 0153017 108.0908 253.7028 14.59061721236609
EAGLE 2                 
1 39436U 13066W   18124.35697329  .00330273  00000-0  13583-2 0  9991
2 39436  97.7116 258.5347 0010185 278.5564  81.4551 15.85068277246458
CUBEBUG-2 (LO-74)       
1 39440U 13066AA  18124.60823646  .00000169  00000-0  30794-4 0  9990
2 39440  97.6037 142.4275 0079880 338.1626  21.6186 14.75654348238295
FUNCUBE-1 (AO-73)       
1 39444U 13066AE  18124.55017776  .00000219  00000-0  33623-4 0  9997
2 39444  97.5919 156.9797 0056743 294.3004  65.2290 14.81691988238605
UWE-3                   
1 39446U 13066AG  18124.57018496  .00000168  00000-0  29198-4 0  9996
2 39446  97.5959 148.5769 0069113 319.0239  40.5791 14.78187967238084
SPROUT                  
1 39770U 14029E   18124.58045185  .00000501  00000-0  62370-4 0  9992
2 39770  97.8746 225.9980 0008870   2.5890 357.5385 14.86793488213887
UNISAT-6                
1 40012U 14033C   18124.62732686  .00000167  00000-0  32608-4 0  9991
2 40012  97.8143   2.4990 0058102 341.1152  18.7901 14.73803199208289
DUCHIFAT-1              
1 40021U 14033M   18124.55049240  .00000270  00000-0  33702-4 0  9991
2 40021  97.9168  43.1895 0012252 328.8674  31.1816 14.90274970210454
FUNCUBE-3 (EO-79)       
1 40025U 14033R   18124.32414568  .00000266  00000-0  34484-4 0  9992
2 40025  97.9068  39.8093 0011927 336.1374  23.9289 14.88691159210267
NUDT-PHONESAT           
1 40900U 15049B   18124.56299244  .00001668  00000-0  77923-4 0  9992
2 40900  97.4423 133.3226 0013585 174.3861 185.7530 15.21135795145284
ZDPS 2A                 
1 40901U 15049C   18124.61059071  .00000731  00000-0  40295-4 0  9993
2 40901  97.4597 131.6396 0013563 181.9714 178.1468 15.17012678145053
ZDPS 2B                 
1 40902U 15049D   18124.57840541  .00000681  00000-0  37983-4 0  9993
2 40902  97.4494 129.7021 0013755 179.3162 180.8092 15.16809037145037
XW-2A                   
1 40903U 15049E   18124.58898199  .00001503  00000-0  39312-4 0  9999
2 40903  97.3885 159.0047 0014181 180.5126 179.6108 15.40323305147091
KAITUO 1A               
1 40904U 15049F   18124.62417867  .00000443  00000-0  27220-4 0  9991
2 40904  97.4587 129.0231 0014302 182.3245 301.4406 15.14979490144907
2015-049G               
1 40905U 15049G   18124.59353765  .00000308  00000-0  20547-4 0  9999
2 40905  97.4590 127.1406 0015879 175.7026 184.4344 15.13935490144820
XW-2C                   
1 40906U 15049H   18124.59903650  .00000529  00000-0  31678-4 0  9996
2 40906  97.4604 128.8912 0015125 174.6457 185.4940 15.15134279144895
XW-2D                   
1 40907U 15049J   18124.55577841  .00000553  00000-0  32828-4 0  9997
2 40907  97.4578 128.5508 0014555 172.3542 187.7915 15.15281005144897
LILACSAT 2              
1 40908U 15049K   18124.57609641  .00000285  00000-0  19539-4 0  9990
2 40908  97.4689 127.9856 0016157 174.4536 185.6878 15.13477578144778
XW-2F                   
1 40910U 15049M   18124.53833034  .00000853  00000-0  47190-4 0  9999
2 40910  97.4581 129.7698 0015399 168.5551 191.6035 15.16444113144846
XW-2B                   
1 40911U 15049N   18124.57169093  .00000539  00000-0  32116-4 0  9994
2 40911  97.4613 129.0877 0014468 172.8435 187.3007 15.15226403144794
KAITUO 1B               
1 40912U 15049P   18124.67201318  .00001008  00000-0  51827-4 0  9995
2 40912  97.4500 132.6163 0015837 156.4790 314.7664 15.18650619145060
TIANWANG 1C (TW-1C)     
1 40926U 15051B   18124.53117829  .00006330  00000-0  12124-3 0  9990
2 40926  97.1874 167.0866 0012040  80.5535  27.4296 15.48315684146552
TIANWANG 1A (TW-1A)     
1 40928U 15051D   18124.37675639  .00002395  00000-0  65021-4 0  9994
2 40928  97.1889 159.2274 0013740 115.6716   3.6280 15.38477580146041
LAPAN-A2 (IO-86)        
1 40931U 15052B   18122.60081376  .00000508  00000-0 -18396-4 0  9990
2 40931   5.9937 115.1140 0013129  81.1408 279.0663 14.76571902140250
E-ST@R-II               
1 41459U 16025D   18124.41079863  .00000677  00000-0  40283-4 0  9992
2 41459  98.1401 184.7733 0169256 295.5010  62.8795 15.04274282110848
AAUSAT 4                
1 41460U 16025E   18124.56314877  .00001439  00000-0  79104-4 0  9998
2 41460  98.1343 185.3658 0161182 291.0934  67.3127 15.05654448110929
NUSAT 1 (LO-87)         
1 41557U 16033B   18124.23248651  .00001088  00000-0  42341-4 0  9997
2 41557  97.4362 208.5337 0012835 319.3289  40.6991 15.28147075107442
BEESAT-4                
1 41619U 16040W   18124.15314926  .00001165  00000-0  54012-4 0  9998
2 41619  97.4183 187.9031 0012415  32.7091 327.4911 15.21991677 91396
ALSAT 1N                
1 41789U 16059G   18124.56230127  .00000102  00000-0  28546-4 0  9994
2 41789  98.1220 187.9516 0027356 222.7151 137.1931 14.64147829 85636
CAS-2T & KS-1Q          
1 41847U 16066G   18124.55123950  .00000036  00000-0  16078-4 0  9994
2 41847  98.7541 152.5239 0366547  14.3044 346.8193 14.37884964 78052
NAYIF-1 (EO-88)         
1 42017U 17008BX  18124.50967462  .00001288  00000-0  55637-4 0  9994
2 42017  97.4514 189.8220 0007005 159.9384 200.2130 15.24297234 67412
LILACSAT-1              
1 42725U 98067ME  18124.52862385  .00016587  00000-0  15534-3 0  9993
2 42725  51.6359 220.4473 0004517  51.9637 308.1766 15.67367561 53670
MAX VALIER SAT          
1 42778U 17036P   18124.57056758  .00000800  00000-0  38908-4 0  9994
2 42778  97.4072 185.0004 0011713 215.8947 144.1503 15.21207502 47875
FOX-1B (AO-91)          
1 43017U 17073E   18124.48085164  .00000850  00000-0  71562-4 0  9993
2 43017  97.7057  57.4387 0261336  54.0924 308.4240 14.78005251 24652
FOX-1D (AO-92)          
1 43137U 18004AC  18124.39672148  .00000874  00000-0  40681-4 0  9999
2 43137  97.5372 186.9704 0007987 250.0414 109.9962 15.22609440 17057
